$$SOE
2459580.500000000, A.D. 2022-Jan-01 00:00:00.0000, -4.190077173527642E+08, 2.537423295098289E+08, -4.958735255707607E+06,
2459587.500000000, A.D. 2022-Jan-08 00:00:00.0000, -4.227429990615693E+08, 2.454078077945436E+08, -1.127604665754437E+06,
2459594.500000000, A.D. 2022-Jan-15 00:00:00.0000, -4.263026268035733E+08, 2.369712939243553E+08, 2.703994018169492E+06,
2459601.500000000, A.D. 2022-Jan-22 00:00:00.0000, -4.296839524465416E+08, 2.284356459130763E+08, 6.534460404890969E+06,
2459608.500000000, A.D. 2022-Jan-29 00:00:00.0000, -4.328843682745603E+08, 2.198038042842605E+08, 1.036217352885640E+07,
2459615.500000000, A.D. 2022-Feb-05 00:00:00.0000, -4.359013116926271E+08, 2.110787919788079E+08, 1.418549230855207E+07,
2459622.500000000, A.D. 2022-Feb-12 00:00:00.0000, -4.387322678322347E+08, 2.022637131400683E+08, 1.800275575733376E+07,
2459629.500000000, A.D. 2022-Feb-19 00:00:00.0000, -4.413747713794463E+08, 1.933617531384209E+08, 2.181228326332353E+07,
2459636.500000000, A.D. 2022-Feb-26 00:00:00.0000, -4.438264089363397E+08, 1.843761791056155E+08, 2.561237500067961E+07,
2459643.500000000, A.D. 2022-Mar-05 00:00:00.0000, -4.460848217566352E+08, 1.753103403563640E+08, 2.940131240824053E+07,
2459650.500000000, A.D. 2022-Mar-12 00:00:00.0000, -4.481477086335596E+08, 1.661676686261881E+08, 3.317735871090628E+07,
2459657.500000000, A.D. 2022-Mar-19 00:00:00.0000, -4.500128288685826E+08, 1.569516781486490E+08, 3.693875948068714E+07,
2459664.500000000, A.D. 2022-Mar-26 00:00:00.0000, -4.516780052978251E+08, 1.476659655613627E+08, 4.068374323615117E+07,
2459671.500000000, A.D. 2022-Apr-02 00:00:00.0000, -4.531411273068519E+08, 1.383142095803094E+08, 4.441052207085192E+07,
2459678.500000000, A.D. 2022-Apr-09 00:00:00.0000, -4.544001535595653E+08, 1.289001704424402E+08, 4.811729228760093E+07,
2459685.500000000, A.D. 2022-Apr-16 00:00:00.0000, -4.554531140810953E+08, 1.194276897654942E+08, 5.180223506067622E+07,
2459692.500000000, A.D. 2022-Apr-23 00:00:00.0000, -4.562981129603140E+08, 1.099006919036046E+08, 5.546351733230963E+07,
2459699.500000000, A.D. 2022-Apr-30 00:00:00.0000, -4.569333335397308E+08, 1.003231845478640E+08, 5.909929293295290E+07,
2459706.500000000, A.D. 2022-May-07 00:00:00.0000, -4.573570430268863E+08, 9.069925659392874E+07, 6.270770348466250E+07,
2459713.500000000, A.D. 2022-May-14 00:00:00.0000, -4.575675951314467E+08, 8.103307630980298E+07, 6.628687920956649E+07,
2459720.500000000, A.D. 2022-May-21 00:00:00.0000, -4.575634327528587E+08, 7.132889055555569E+07, 6.983493989250807E+07,
2459727.500000000, A.D. 2022-May-28 00:00:00.0000, -4.573430911930815E+08, 6.159102408977941E+07, 7.334999596441880E+07,
2459734.500000000, A.D. 2022-Jun-04 00:00:00.0000, -4.569052016124761E+08, 5.182387864475036E+07, 7.683014965649137E+07,
2459741.500000000, A.D. 2022-Jun-11 00:00:00.0000, -4.562484945780373E+08, 4.203193176741709E+07, 8.027349621291372E+07,
2459748.500000000, A.D. 2022-Jun-18 00:00:00.0000, -4.553718036584234E+08, 3.221973543431715E+07, 8.367812516034774E+07,
2459755.500000000, A.D. 2022-Jun-25 00:00:00.0000, -4.542740690291154E+08, 2.239191440214207E+07, 8.704212162923774E+07,
2459762.500000000, A.D. 2022-Jul-02 00:00:00.0000, -4.529543409460415E+08, 1.255316422334351E+07, 9.036356770963199E+07,
2459769.500000000, A.D. 2022-Jul-09 00:00:00.0000, -4.514117826891856E+08, 2.708249099149980E+06, 9.364054382034099E+07,
2459776.500000000, A.D. 2022-Jul-16 00:00:00.0000, -4.496456730224262E+08, -7.137999351719268E+06, 9.687113018485846E+07,
2459783.500000000, A.D. 2022-Jul-23 00:00:00.0000, -4.476554103589646E+08, -1.698068233573077E+07, 1.000534086217595E+08,
2459790.500000000, A.D. 2022-Jul-30 00:00:00.0000, -4.454405185403578E+08, -2.681483649693418E+07, 1.031854643678210E+08,
2459797.500000000, A.D. 2022-Aug-06 00:00:00.0000, -4.430006506216084E+08, -3.663543825348349E+07, 1.062653876566917E+08,
2459804.500000000, A.D. 2022-Aug-13 00:00:00.0000, -4.403355914736173E+08, -4.643740710600764E+07, 1.092912753525678E+08,
2459811.500000000, A.D. 2022-Aug-20 00:00:00.0000, -4.374452607603490E+08, -5.621560842472354E+07, 1.122612327400596E+08,
2459818.500000000, A.D. 2022-Aug-27 00:00:00.0000, -4.343297162121944E+08, -6.596485644506771E+07, 1.151733754034017E+08,
2459825.500000000, A.D. 2022-Sep-03 00:00:00.0000, -4.309891569372560E+08, -7.567991758415377E+07, 1.180258311620254E+08,
2459832.500000000, A.D. 2022-Sep-10 00:00:00.0000, -4.274239266691890E+08, -8.535551405495402E+07, 1.208167420545332E+08,
2459839.500000000, A.D. 2022-Sep-17 00:00:00.0000, -4.236345169103344E+08, -9.498632778021592E+07, 1.235442663661439E+08,
2459846.500000000, A.D. 2022-Sep-24 00:00:00.0000, -4.196215698976604E+08, -1.045670046565577E+08, 1.262065806874795E+08,
2459853.500000000, A.D. 2022-Oct-01 00:00:00.0000, -4.153858811392461E+08, -1.140921591895323E+08, 1.288018819780439E+08,
2459860.500000000, A.D. 2022-Oct-08 00:00:00.0000, -4.109284011010870E+08, -1.235563789747324E+08, 1.313283896361951E+08,
2459867.500000000, A.D. 2022-Oct-15 00:00:00.0000, -4.062502369619851E+08, -1.329542278218641E+08, 1.337843477544992E+08,
2459874.500000000, A.D. 2022-Oct-22 00:00:00.0000, -4.013526566035598E+08, -1.422802492019349E+08, 1.361680276175773E+08,
2459881.500000000, A.D. 2022-Oct-29 00:00:00.0000, -3.962370923242066E+08, -1.515289726075200E+08, 1.384777299962357E+08,
2459888.500000000, A.D. 2022-Nov-05 00:00:00.0000, -3.909051421645864E+08, -1.606949200801114E+08, 1.407117872641811E+08,
2459895.500000000, A.D. 2022-Nov-12 00:00:00.0000, -3.853585707957087E+08, -1.697726116316759E+08, 1.428685656154195E+08,
2459902.500000000, A.D. 2022-Nov-19 00:00:00.0000, -3.795993106763445E+08, -1.787565705089314E+08, 1.449464673650276E+08,
2459909.500000000, A.D. 2022-Nov-26 00:00:00.0000, -3.736294632067565E+08, -1.876413286908942E+08, 1.469439332721971E+08,
2459916.500000000, A.D. 2022-Dec-03 00:00:00.0000, -3.674512997024999E+08, -1.964214326222050E+08, 1.488594448647068E+08,
2459923.500000000, A.D. 2022-Dec-10 00:00:00.0000, -3.610672621320857E+08, -2.050914491527114E+08, 1.506915267566579E+08,
2459930.500000000, A.D. 2022-Dec-17 00:00:00.0000, -3.544799635827503E+08, -2.136459716965140E+08, 1.524387489488341E+08,
2459937.500000000, A.D. 2022-Dec-24 00:00:00.0000, -3.476921883341341E+08, -2.220796266639332E+08, 1.540997290895011E+08,
2459944.500000000, A.D. 2022-Dec-31 00:00:00.0000, -3.407068911720653E+08, -2.303870800457989E+08, 1.556731346646500E+08,
2459951.500000000, A.D. 2023-Jan-07 00:00:00.0000, -3.335271958102276E+08, -2.385630431736541E+08, 1.571576851778315E+08,
2459958.500000000, A.D. 2023-Jan-14 00:00:00.0000, -3.261563943777040E+08, -2.466022771443082E+08, 1.585521545329860E+08,
2459965.500000000, A.D. 2023-Jan-21 00:00:00.0000, -3.185979486093483E+08, -2.544995990668243E+08, 1.598553734128524E+08,
2459972.500000000, A.D. 2023-Jan-28 00:00:00.0000, -3.108554890655770E+08, -2.622498903124546E+08, 1.610662312942796E+08,
2459979.500000000, A.D. 2023-Feb-04 00:00:00.0000, -3.029328125858061E+08, -2.698481037225287E+08, 1.621836783604252E+08,
2459986.500000000, A.D. 2023-Feb-11 00:00:00.0000, -2.948338797663485E+08, -2.772892699491866E+08, 1.632067274509932E+08,
2459993.500000000, A.D. 2023-Feb-18 00:00:00.0000, -2.865628125222589E+08, -2.845685037335899E+08, 1.641344559811348E+08,
2460000.500000000, A.D. 2023-Feb-25 00:00:00.0000, -2.781238914681208E+08, -2.916810102652056E+08, 1.649660077844462E+08,
2460007.500000000, A.D. 2023-Mar-04 00:00:00.0000, -2.695215530152089E+08, -2.986220915848495E+08, 1.657005948657196E+08,
2460014.500000000, A.D. 2023-Mar-11 00:00:00.0000, -2.607603861576179E+08, -3.053871530117567E+08, 1.663374990546671E+08,
2460021.500000000, A.D. 2023-Mar-18 00:00:00.0000, -2.518451289027904E+08, -3.119717096244050E+08, 1.668760735461020E+08,
2460028.500000000, A.D. 2023-Mar-25 00:00:00.0000, -2.427806641469161E+08, -3.183713928223762E+08, 1.673157442980496E+08,
2460035.500000000, A.D. 2023-Apr-01 00:00:00.0000, -2.335720145758849E+08, -3.245819565558971E+08, 1.676560112752061E+08,
2460042.500000000, A.D. 2023-Apr-08 00:00:00.0000, -2.242243372137108E+08, -3.305992819779606E+08, 1.678964496885744E+08,
2460049.500000000, A.D. 2023-Apr-15 00:00:00.0000, -2.147429199628970E+08, -3.364193816053015E+08, 1.680367113494920E+08,
2460056.500000000, A.D. 2023-Apr-22 00:00:00.0000, -2.051331783364697E+08, -3.420384060217893E+08, 1.680765257179343E+08,
2460063.500000000, A.D. 2023-Apr-29 00:00:00.0000, -1.954006496580763E+08, -3.474526508538841E+08, 1.680157005749566E+08,
2460070.500000000, A.D. 2023-May-06 00:00:00.0000, -1.855509865035595E+08, -3.526585622188284E+08, 1.678541226228521E+08,
2460077.500000000, A.D. 2023-May-13 00:00:00.0000, -1.755899503747219E+08, -3.576527415208567E+08, 1.675917580256586E+08,
2460084.500000000, A.D. 2023-May-20 00:00:00.0000, -1.655234053858128E+08, -3.624319500692245E+08, 1.672286528245481E+08,
2460091.500000000, A.D. 2023-May-27 00:00:00.0000, -1.553573117847873E+08, -3.669931135316304E+08, 1.667649332047322E+08,
2460098.500000000, A.D. 2023-Jun-03 00:00:00.0000, -1.450977192684197E+08, -3.713333261826755E+08, 1.662008056085678E+08,
2460105.500000000, A.D. 2023-Jun-10 00:00:00.0000, -1.347507600855285E+08, -3.754498549479527E+08, 1.655365566904433E+08,
2460112.500000000, A.D. 2023-Jun-17 00:00:00.0000, -1.243226418586268E+08, -3.793401432916214E+08, 1.647725530999788E+08,
2460119.500000000, A.D. 2023-Jun-24 00:00:00.0000, -1.138196398244683E+08, -3.830018148804330E+08, 1.639092410687646E+08,
2460126.500000000, A.D. 2023-Jul-01 00:00:00.0000, -1.032480882616268E+08, -3.864326761854360E+08, 1.629471458452635E+08,
2460133.500000000, A.D. 2023-Jul-08 00:00:00.0000, -9.261437280054027E+07, -3.896307171891884E+08, 1.618868711985204E+08,
2460140.500000000, A.D. 2023-Jul-15 00:00:00.0000, -8.192492491330266E+07, -3.925941130194766E+08, 1.607290988765384E+08,
2460147.500000000, A.D. 2023-Jul-22 00:00:00.0000, -7.118621508177494E+07, -3.953212275384077E+08, 1.594745876137172E+08,
$$EOE